GPS BIIR-2  (PRN 13)    
1 24876U 97035A   22164.37363871  .00000082  00000+0  00000+0 0  9992
2 24876  55.5109 155.8327 0058122  51.0349 309.4828  2.00563215182576
GPS BIIR-4  (PRN 20)    
1 26360U 00025A   22164.48169385 -.00000048  00000+0  00000+0 0  9994
2 26360  54.0548  79.0301 0047732 184.0384 342.8439  2.00572484161896
GPS BIIR-6  (PRN 22)    
1 26605U 00071A   22164.56932566  .00000074  00000+0  00000+0 0  9993
2 26605  55.0945 152.8193 0136322 254.3429 105.4812  2.00560008158145
GPS BIIR-8  (PRN 16)    
1 27663U 03005A   22164.83780865 -.00000010  00000+0  00000+0 0  9992
2 27663  55.5140 273.2056 0125642  41.0889   3.1735  2.00564688141948
GPS BIIR-9  (PRN 21)    
1 27704U 03010A   22164.10984664 -.00000070  00000+0  00000+0 0  9993
2 27704  55.0229  23.4812 0244717 306.0125 149.5118  2.00555721140727
GPS BIIR-11 (PRN 19)    
1 28190U 04009A   22164.29902472 -.00000064  00000+0  00000+0 0  9992
2 28190  56.0076 334.2060 0090623 120.3321  50.7424  2.00560374133563
GPS BIIR-13 (PRN 02)    
1 28474U 04045A   22164.44519927 -.00000070  00000+0  00000+0 0  9990
2 28474  55.3501  23.6035 0206257 279.0004 267.3338  2.00563151129051
GPS BIIRM-1 (PRN 17)    
1 28874U 05038A   22164.30009955 -.00000063  00000+0  00000+0 0  9999
2 28874  56.0736 331.6404 0137231 274.4555 279.2093  2.00576567122452
GPS BIIRM-2 (PRN 31)    
1 29486U 06042A   22164.87951720  .00000089  00000+0  00000+0 0  9990
2 29486  54.7152 209.4156 0103366  21.4055 147.4867  2.00553932115023
GPS BIIRM-3 (PRN 12)    
1 29601U 06052A   22164.58589751 -.00000009  00000+0  00000+0 0  9992
2 29601  55.5207 272.1532 0083961  74.3196 286.6255  2.00550719114035
GPS BIIRM-4 (PRN 15)    
1 32260U 07047A   22164.40438068  .00000053  00000+0  00000+0 0  9995
2 32260  53.3142 140.7120 0139281  62.2184 299.1607  2.00575171107432
GPS BIIRM-5 (PRN 29)    
1 32384U 07062A   22164.14267153 -.00000062  00000+0  00000+0 0  9996
2 32384  56.1925 332.4071 0020516 136.1513 166.5886  2.00561723106120
GPS BIIRM-6 (PRN 07)    
1 32711U 08012A   22163.81900088  .00000096  00000+0  00000+0 0  9996
2 32711  54.4752 208.3943 0163776 230.9573 127.6640  2.00565106104366
GPS BIIRM-8 (PRN 05)    
1 35752U 09043A   22164.42911716 -.00000039  00000+0  00000+0 0  9995
2 35752  55.0679  85.6897 0058439  58.4071  38.7493  2.00556075 93986
GPS BIIF-1  (PRN 25)    
1 36585U 10022A   22164.68386808 -.00000002  00000+0  00000+0 0  9995
2 36585  54.8037 267.6711 0102935  56.9236 341.0993  2.00564965 88223
GPS BIIF-2  (PRN 01)    
1 37753U 11036A   22164.76584031 -.00000068  00000+0  00000+0 0  9998
2 37753  56.6044  28.8467 0117864  51.9505 130.2074  2.00565269 79906
GPS BIIF-3  (PRN 24)    
1 38833U 12053A   22163.99930432  .00000098  00000+0  00000+0 0  9994
2 38833  53.5302 203.5325 0123552  46.0849 315.0183  2.00561716 70055
GPS BIIF-4  (PRN 27)    
1 39166U 13023A   22164.35641451 -.00000063  00000+0  00000+0 0  9996
2 39166  55.7011 328.0125 0104073  38.3479 322.3816  2.00565808 66502
GPS BIIF-5  (PRN 30)    
1 39533U 14008A   22163.85676708  .00000094  00000+0  00000+0 0  9998
2 39533  53.6242 209.0441 0059956 208.5888 151.1720  2.00553292 60292
GPS BIIF-6  (PRN 06)    
1 39741U 14026A   22164.13732533 -.00000067  00000+0  00000+0 0  9991
2 39741  56.5660  28.3968 0026865 307.8435  51.9738  2.00556230 59153
GPS BIIF-7  (PRN 09)    
1 40105U 14045A   22164.22034846  .00000068  00000+0  00000+0 0  9990
2 40105  54.6921 146.9729 0018910 109.1736 251.0176  2.00577682 56698
GPS BIIF-8  (PRN 03)    
1 40294U 14068A   22164.09893825 -.00000035  00000+0  00000+0 0  9994
2 40294  55.8120  88.1072 0040789  53.9838 306.3800  2.00571087 55822
GPS BIIF-9  (PRN 26)    
1 40534U 15013A   22164.73482844  .00000002  00000+0  00000+0 0  9991
2 40534  53.7049 264.8504 0068638  20.5349 339.7751  2.00552579 52455
GPS BIIF-10 (PRN 08)    
1 40730U 15033A   22163.90221628 -.00000062  00000+0  00000+0 0  9997
2 40730  55.2000 326.8621 0074194   8.1914 351.9223  2.00551882 50601
GPS BIIF-11 (PRN 10)    
1 41019U 15062A   22164.44536869 -.00000036  00000+0  00000+0 0  9997
2 41019  55.8009  87.9362 0077776 218.3021 141.1327  2.00562685 48454
GPS BIIF-12 (PRN 32)    
1 41328U 16007A   22164.53693116  .00000066  00000+0  00000+0 0  9991
2 41328  54.9098 147.6313 0061928 230.7015 128.7335  2.00570841 46460
GPS BIII-1  (PRN 04)    
1 43873U 18109A   22164.42019462  .00000072  00000+0  00000+0 0  9994
2 43873  55.0898 150.0538 0019005 196.7623 334.3775  2.00571181 25692
GPS BIII-2  (PRN 18)    
1 44506U 19056A   22164.04755550 -.00000068  00000+0  00000+0 0  9999
2 44506  55.6769  29.2231 0023801 177.7306 346.4815  2.00556958 20680
GPS BIII-3  (PRN 23)    
1 45854U 20041A   22162.65072029 -.00000034  00000+0  00000+0 0  9993
2 45854  55.5177  86.5496 0022063 177.7259 354.0051  2.00558991 14627
GPS BIII-4  (PRN 14)    
1 46826U 20078A   22164.15845539 -.00000009  00000+0  00000+0 0  9996
2 46826  54.5695 270.2710 0019912 186.8078 328.4378  2.00564843 12124
GPS BIII-5  (PRN 11)    
1 48859U 21054A   22164.45680233 -.00000070  00000+0  00000+0 0  9998
2 48859  55.1825  31.2090 0004352 191.0587   3.0295  2.00573586  7374
